{"version": 0.6, "generator": "Overpass API 0.7.61.5 4133829e", "osm3s": {"timestamp_osm_base": "2024-03-14T02:52:28Z", "copyright": "The data included in this document is from www.openstreetmap.org. The data is made available under ODbL."}, "elements": [{"type": "node", "id": 282421229, "lat": -43.5356452, "lon": 172.6419868}, {"type": "node", "id": 289302342, "lat": -43.5718258, "lon": 172.5709601, "tags": {"amenity": "fuel", "brand": "BP", "brand:wikidata": "Q152057", "brand:wikipedia": "en:BP", "name": "BP Petrol Station Halswell Road"}}, {"type": "node", "id": 289305351, "lat": -43.5821619, "lon": 172.5692079}, {"type": "node", "id": 292803115, "lat": -43.5199871, "lon": 172.5347836, "tags": {"addr:city": "Christchurch", "addr:country": "NZ", "addr:housenumber": "2", "addr:postcode": "8042", "addr:street": "Russley Road", "amenity": "fuel", "branch": "Russley", "brand": "Z", "brand:wikidata": "Q8063337", "brand:wikipedia": "en:Z Energy", "name": "Z", "opening_hours": "24/7"}}, {"type": "node", "id": 415302559, "lat": -43.5493368, "lon": 172.4882871}, {"type": "node", "id": 415302560, "lat": -43.5494115, "lon": 172.488227}, {"type": "node", "id": 415302561, "lat": -43.5493617, "lon": 172.4881326}, {"type": "node", "id": 415302562, "lat": -43.5494737, "lon": 172.4880038}, {"type": "node", "id": 415302563, "lat": -43.5496541, "lon": 172.4883214}, {"type": "node", "id": 415302564, "lat": -43.549567, "lon": 172.488433}, {"type": "node", "id": 415302565, "lat": -43.5494675, "lon": 172.4884931}, {"type": "node", "id": 486849593, "lat": -43.5652281, "lon": 172.6369547}, {"type": "node", "id": 486849598, "lat": -43.5650812, "lon": 172.6363435}, {"type": "node", "id": 486849604, "lat": -43.5656545, "lon": 172.6367627}, {"type": "node", "id": 486849606, "lat": -43.5654592, "lon": 172.6368801}, {"type": "node", "id": 524866606, "lat": -43.5438046, "lon": 172.5228827}, {"type": "node", "id": 524866607, "lat": -43.5439102, "lon": 172.5229089}, {"type": "node", "id": 524866608, "lat": -43.5439323, "lon": 172.5227398}, {"type": "node", "id": 524866612, "lat": -43.5440866, "lon": 172.522778}, {"type": "node", "id": 524866615, "lat": -43.5440432, "lon": 172.5231113}, {"type": "node", "id": 524866619, "lat": -43.5437832, "lon": 172.5230469}, {"type": "node", "id": 990859063, "lat": -43.5192342, "lon": 172.5797077}, {"type": "node", "id": 1050200993, "lat": -43.4902606, "lon": 172.6212144, "tags": {"addr:city": "Christchurch", "addr:country": "NZ", "addr:housenumber": "500", "addr:postcode": "8051", "addr:street": "Cranford Street", "addr:suburb": "Redwood", "amenity": "fuel", "branch": "Cranford Street", "brand": "Caltex", "brand:wikidata": "Q277470", "brand:wikipedia": "en:Caltex", "name": "Caltex", "opening_hours": "06:00-00:00", "operator": "Caltex", "ref:linz:address_id": "210842"}}, {"type": "node", "id": 1166287282, "lat": -43.5176852, "lon": 172.7016575, "tags": {"amenity": "fuel", "brand": "Mobil", "brand:wikidata": "Q109676002", "brand:wikipedia": "ja:\u30e2\u30fc\u30d3\u30eb (\u30d6\u30e9\u30f3\u30c9)", "name": "Mobil", "note": "TODO"}}, {"type": "node", "id": 1166287488, "lat": -43.5327396, "lon": 172.6713352, "tags": {"addr:city": "Christchurch", "addr:country": "NZ", "addr:postcode": "8011", "addr:street": "Linwood Avenue", "amenity": "fuel", "branch": "Linwood", "brand": "Z", "brand:wikidata": "Q8063337", "brand:wikipedia": "en:Z Energy", "compressed_air": "yes", "fuel:diesel": "yes", "fuel:octane_91": "yes", "fuel:octane_95": "yes", "name": "Z", "opening_hours": "24/7", "operator": "Z Energy", "phone": "+64 3 389 8115", "website": "http://z.co.nz/about-z/find-us/canterbury-and-christchurch/z-linwood/"}}, {"type": "node", "id": 1172139044, "lat": -43.5355685, "lon": 172.6420902}, {"type": "node", "id": 1172151460, "lat": -43.539428, "lon": 172.6391259, "tags": {"source": "Bing"}}, {"type": "node", "id": 1172151463, "lat": -43.5395893, "lon": 172.6393875}, {"type": "node", "id": 1172151464, "lat": -43.5395903, "lon": 172.639127}, {"type": "node", "id": 1172251631, "lat": -43.5351711, "lon": 172.6458155}, {"type": "node", "id": 1172651572, "lat": -43.5353785, "lon": 172.6498017}, {"type": "node", "id": 1174650924, "lat": -43.5430991, "lon": 172.5462483}, {"type": "node", "id": 1174650979, "lat": -43.5429656, "lon": 172.5460692}, {"type": "node", "id": 1174651039, "lat": -43.5429024, "lon": 172.5460241}, {"type": "node", "id": 1174651176, "lat": -43.542992, "lon": 172.5459988}, {"type": "node", "id": 1174651191, "lat": -43.5428742, "lon": 172.546088}, {"type": "node", "id": 1174651292, "lat": -43.542834, "lon": 172.5461955}, {"type": "node", "id": 1174651475, "lat": -43.5427683, "lon": 172.5461486}, {"type": "node", "id": 1174651533, "lat": -43.5431503, "lon": 172.5461117}, {"type": "node", "id": 1174652038, "lat": -43.5428241, "lon": 172.5459997}, {"type": "node", "id": 1174652046, "lat": -43.5428931, "lon": 172.5460489}, {"type": "node", "id": 1176480485, "lat": -43.539427, "lon": 172.6393864}, {"type": "node", "id": 1283645353, "lat": -43.4731346, "lon": 172.6175408}, {"type": "node", "id": 1283645354, "lat": -43.4789024, "lon": 172.6164203, "tags": {"addr:city": "Christchurch", "addr:country": "NZ", "addr:housenumber": "315", "addr:postcode": "8051", "addr:street": "Main North Road", "addr:suburb": "Redwood", "amenity": "fuel", "branch": "Redwood", "brand": "Caltex", "brand:wikidata": "Q277470", "brand:wikipedia": "en:Caltex", "name": "Caltex", "opening_hours": "24/7", "operator": "Caltex", "ref:linz:address_id": "210118"}}, {"type": "node", "id": 1527793352, "lat": -43.5200199, "lon": 172.6268629}, {"type": "node", "id": 1527793388, "lat": -43.5199287, "lon": 172.6270921}, {"type": "node", "id": 1527793444, "lat": -43.5199979, "lon": 172.6271444}, {"type": "node", "id": 1527793445, "lat": -43.5200891, "lon": 172.6269153}, {"type": "node", "id": 1655519118, "lat": -43.5435011, "lon": 172.5464036, "tags": {"amenity": "fuel", "brand": "Mobil", "brand:wikidata": "Q109676002", "brand:wikipedia": "ja:\u30e2\u30fc\u30d3\u30eb (\u30d6\u30e9\u30f3\u30c9)", "fuel:diesel": "yes", "name": "Mobil Wigram"}}, {"type": "node", "id": 1705269808, "lat": -43.5633756, "lon": 172.6767521}, {"type": "node", "id": 1705269809, "lat": -43.5634188, "lon": 172.6768062}, {"type": "node", "id": 1705269810, "lat": -43.563401, "lon": 172.6768307}, {"type": "node", "id": 1705269811, "lat": -43.5633663, "lon": 172.6768786}, {"type": "node", "id": 1705269812, "lat": -43.5633238, "lon": 172.6768245}, {"type": "node", "id": 1930116700, "lat": -43.5500522, "lon": 172.6372802}, {"type": "node", "id": 1930116701, "lat": -43.5500525, "lon": 172.6371788}, {"type": "node", "id": 1930116703, "lat": -43.550159, "lon": 172.6372809}, {"type": "node", "id": 1930116704, "lat": -43.5501594, "lon": 172.6371795}, {"type": "node", "id": 2140974331, "lat": -43.5614676, "lon": 172.7376082}, {"type": "node", "id": 2140974333, "lat": -43.5614808, "lon": 172.7378081}, {"type": "node", "id": 2140974334, "lat": -43.5615583, "lon": 172.7379086}, {"type": "node", "id": 2140974335, "lat": -43.5614015, "lon": 172.7377051}, {"type": "node", "id": 2140974337, "lat": -43.5616244, "lon": 172.7378116}, {"type": "node", "id": 2140974338, "lat": -43.5615053, "lon": 172.7378398}, {"type": "node", "id": 2161703883, "lat": -43.5187113, "lon": 172.5898077, "tags": {"addr:city": "Christchurch", "addr:country": "NZ", "addr:housenumber": "1", "addr:street": "Memorial Avenue", "amenity": "fuel", "brand": "BP", "brand:wikidata": "Q152057", "brand:wikipedia": "en:BP", "name": "BP Fendalton", "operator": "BP"}}, {"type": "node", "id": 2166372230, "lat": -43.5312244, "lon": 172.5762261}, {"type": "node", "id": 2166372233, "lat": -43.5312173, "lon": 172.5763169}, {"type": "node", "id": 2166372239, "lat": -43.5313172, "lon": 172.576159}, {"type": "node", "id": 2166372241, "lat": -43.5313961, "lon": 172.576251}, {"type": "node", "id": 2166372242, "lat": -43.5314311, "lon": 172.5762563}, {"type": "node", "id": 2166372254, "lat": -43.5314018, "lon": 172.5761776}, {"type": "node", "id": 2166372257, "lat": -43.5314969, "lon": 172.5760504}, {"type": "node", "id": 2166372261, "lat": -43.5312566, "lon": 172.5760144}, {"type": "node", "id": 2166372264, "lat": -43.5314859, "lon": 172.5761901}, {"type": "node", "id": 2166372273, "lat": -43.5313109, "lon": 172.576239}, {"type": "node", "id": 2166372275, "lat": -43.5312461, "lon": 172.5761483}, {"type": "node", "id": 2166372284, "lat": -43.5314261, "lon": 172.576347}, {"type": "node", "id": 2241669898, "lat": -43.4517228, "lon": 172.6277422, "tags": {"amenity": "fuel", "branch": "Belfast", "brand": "Z", "brand:wikidata": "Q8063337", "brand:wikipedia": "en:Z Energy", "fuel:diesel": "yes", "fuel:octane_91": "yes", "fuel:octane_95": "yes", "name": "Z", "opening_hours": "24/7", "operator": "Z Energy", "phone": "+64 3 323 8715"}}, {"type": "node", "id": 2600838046, "lat": -43.5291401, "lon": 172.6043366, "tags": {"addr:city": "Christchurch", "addr:country": "NZ", "addr:housenumber": "64-66", "addr:postcode": "8011", "addr:street": "Riccarton Road", "amenity": "fuel", "branch": "Riccarton", "brand": "Caltex", "brand:wikidata": "Q277470", "brand:wikipedia": "en:Caltex", "compressed_air": "yes", "name": "Caltex", "opening_hours": "24/7", "operator": "Caltex", "wheelchair": "yes"}}, {"type": "node", "id": 2630814782, "lat": -43.5292831, "lon": 172.6090734, "tags": {"amenity": "fuel", "brand": "Mobil", "brand:wikidata": "Q109676002", "brand:wikipedia": "ja:\u30e2\u30fc\u30d3\u30eb (\u30d6\u30e9\u30f3\u30c9)", "name": "Mobil"}}, {"type": "node", "id": 2697122887, "lat": -43.5117196, "lon": 172.555971, "tags": {"addr:city": "Christchurch", "addr:country": "NZ", "addr:housenumber": "202", "addr:postcode": "8042", "addr:street": "Withells Road", "addr:suburb": "Avonhead", "amenity": "fuel", "branch": "Avonhead", "brand": "Caltex", "brand:wikidata": "Q277470", "brand:wikipedia": "en:Caltex", "compressed_air": "yes", "fuel:diesel": "yes", "fuel:electricity": "yes", "fuel:lpg": "yes", "fuel:octane_91": "yes", "fuel:octane_95": "yes", "fuel:octane_98": "yes", "name": "Caltex", "opening_hours": "Mo-Fr 06:00-21:00; We 06:00-22:00; Sa,Su 07:00-21:00", "operator": "Caltex", "ref:linz:address_id": "169291", "source": "local_knowledge"}}, {"type": "node", "id": 2742939892, "lat": -43.4812281, "lon": 172.5928073, "tags": {"amenity": "fuel", "brand": "BP", "brand:wikidata": "Q152057", "brand:wikipedia": "en:BP", "name": "BP Sawyers Arms Road"}}, {"type": "node", "id": 2742939893, "lat": -43.487676, "lon": 172.5878824, "tags": {"addr:city": "Christchurch", "addr:country": "NZ", "addr:housenumber": "318", "addr:street": "Harewood Road", "addr:suburb": "Bishopdale", "amenity": "fuel", "branch": "Bishopdale", "brand": "Caltex", "brand:wikidata": "Q277470", "brand:wikipedia": "en:Caltex", "compressed_air": "yes", "name": "Caltex", "opening_hours": "Mo-Su 06:00-24:00", "ref:linz:address_id": "188203"}}, {"type": "node", "id": 2742939895, "lat": -43.4898107, "lon": 172.5930428, "tags": {"addr:city": "Christchurch", "addr:country": "NZ", "addr:housenumber": "210", "addr:street": "Harewood Road", "amenity": "fuel", "branch": "Bishopdale", "brand": "Z", "brand:wikidata": "Q8063337", "brand:wikipedia": "en:Z Energy", "fuel:diesel": "yes", "fuel:octane_91": "yes", "fuel:octane_95": "yes", "name": "Z", "opening_hours": "24/7", "phone": "+64 3 359 4681"}}, {"type": "node", "id": 2742971349, "lat": -43.4956428, "lon": 172.6082268, "tags": {"addr:city": "Christchurch", "addr:country": "NZ", "addr:housenumber": "23", "addr:postcode": "8053", "addr:street": "Main North Road", "addr:suburb": "Papanui", "amenity": "fuel", "branch": "Papanui", "brand": "Mobil", "brand:wikidata": "Q109676002", "brand:wikipedia": "ja:\u30e2\u30fc\u30d3\u30eb (\u30d6\u30e9\u30f3\u30c9)", "name": "Mobil", "ref:linz:address_id": "203389"}}, {"type": "node", "id": 2742971353, "lat": -43.499558, "lon": 172.6097839, "tags": {"addr:city": "Christchurch", "addr:country": "NZ", "addr:housenumber": "461", "addr:postcode": "8053", "addr:street": "Papanui Road", "addr:suburb": "Papanui", "amenity": "fuel", "branch": "Papanui", "brand": "BP", "brand:wikidata": "Q152057", "brand:wikipedia": "en:BP", "name": "BP 2go", "opening_hours": "05:30-22:00", "ref:linz:address_id": "1734691"}}, {"type": "node", "id": 2742971356, "lat": -43.4976706, "lon": 172.6423819, "tags": {"amenity": "fuel", "brand": "BP", "brand:wikidata": "Q152057", "brand:wikipedia": "en:BP", "name": "BP 2GO Mairehau"}}, {"type": "node", "id": 2742994317, "lat": -43.5105435, "lon": 172.6076296, "tags": {"addr:country": "NZ", "addr:housenumber": "52", "addr:street": "Strowan Road", "amenity": "fuel", "branch": "Bryndwr", "brand": "Z", "brand:wikidata": "Q8063337", "brand:wikipedia": "en:Z Energy", "fuel:diesel": "yes", "fuel:octane_91": "yes", "fuel:octane_95": "yes", "name": "Z", "opening_hours": "Mo-Su 06:00-23:00", "phone": "+64 3 355 8902"}}, {"type": "node", "id": 2743141044, "lat": -43.5183973, "lon": 172.6518684, "tags": {"amenity": "fuel", "brand": "Challenge", "brand:wikidata": "Q5068888", "brand:wikipedia": "en:Challenge (company)", "name": "Challenge Hills Road"}}, {"type": "node", "id": 2743141050, "lat": -43.5218711, "lon": 172.6561234, "tags": {"addr:city": "Christchurch", "addr:country": "NZ", "addr:housenumber": "261", "addr:postcode": "8013", "addr:street": "Stanmore Road", "amenity": "fuel", "branch": "Stanmore", "brand": "Gull", "brand:wikidata": "Q111949119", "brand:wikipedia": "en:Gull Petroleum", "fuel:diesel": "yes", "fuel:octane_91": "yes", "fuel:octane_95": "yes", "name": "Gull", "opening_hours": "24/7", "self_service": "yes"}}, {"type": "node", "id": 2743141056, "lat": -43.5255398, "lon": 172.67343, "tags": {"addr:city": "Christchurch", "addr:country": "NZ", "addr:housenumber": "712", "addr:street": "Gloucester Street", "amenity": "fuel", "brand": "BP", "brand:wikidata": "Q152057", "brand:wikipedia": "en:BP", "fuel:diesel": "yes", "fuel:octane_91": "yes", "fuel:octane_95": "yes", "name": "BP Dallington", "operator": "BP"}}, {"type": "node", "id": 2743141059, "lat": -43.5118722, "lon": 172.6921195, "tags": {"addr:city": "Christchurch", "addr:country": "NZ", "addr:housenumber": "175", "addr:postcode": "8061", "addr:street": "Wainoni Road", "amenity": "fuel", "name": "Allied Wainoni", "opening_hours": "Mo-Su 06:00-23:59", "phone": "+64 3 388 4373"}}, {"type": "node", "id": 2743141075, "lat": -43.5433243, "lon": 172.6679775, "tags": {"addr:city": "Christchurch", "addr:country": "NZ", "addr:housenumber": "417", "addr:postcode": "8023", "addr:street": "Ferry Road", "addr:suburb": "Woolston", "amenity": "fuel", "branch": "Woolston", "brand": "Z", "brand:wikidata": "Q8063337", "brand:wikipedia": "en:Z Energy", "compressed_air": "yes", "fuel:diesel": "yes", "fuel:octane_91": "yes", "fuel:octane_95": "yes", "name": "Z Woolston", "opening_hours": "24/7", "operator": "Z Energy", "phone": "+64 3 389 2292", "ref:linz:address_id": "252581", "website": "http://z.co.nz/about-z/find-us/canterbury-and-christchurch/z-woolston/", "wheelchair": "yes"}}, {"type": "node", "id": 2743141096, "lat": -43.5458225, "lon": 172.6085758, "tags": {"addr:city": "Christchurch", "addr:country": "NZ", "addr:housenumber": "250", "addr:street": "Lincoln Road", "amenity": "fuel", "branch": "Addington", "brand": "Z", "brand:wikidata": "Q8063337", "brand:wikipedia": "en:Z Energy", "fuel:diesel": "yes", "fuel:octane_91": "yes", "fuel:octane_95": "yes", "name": "Z", "opening_hours": "24/7", "phone": "+64 3 338 8795", "website": "https://z.co.nz", "wheelchair": "yes"}}, {"type": "node", "id": 2743141099, "lat": -43.5378398, "lon": 172.5957122, "tags": {"addr:city": "Christchurch", "addr:country": "NZ", "addr:housenumber": "149", "addr:street": "Blenheim Road", "amenity": "fuel", "branch": "Blenheim Road", "brand": "Caltex", "brand:wikidata": "Q277470", "brand:wikipedia": "en:Caltex", "fuel:diesel": "yes", "fuel:lpg": "yes", "fuel:octane_91": "yes", "fuel:octane_95": "yes", "name": "Caltex", "opening_hours": "24/7", "operator": "Caltex", "phone": "+64 3 343 0322", "wheelchair": "yes"}}, {"type": "node", "id": 2743408563, "lat": -43.5446944, "lon": 172.5674282, "tags": {"amenity": "fuel", "name": "Parkhouse Service Station"}}, {"type": "node", "id": 2743408571, "lat": -43.5387832, "lon": 172.5274556, "tags": {"amenity": "fuel", "brand": "G.A.S.", "brand:wikidata": "Q112189761", "name": "g.a.s. Hornby"}}, {"type": "node", "id": 2743408574, "lat": -43.5381532, "lon": 172.5286455, "tags": {"addr:city": "Christchurch", "addr:country": "NZ", "addr:postcode": "8042", "addr:street": "Carmen Road", "amenity": "fuel", "branch": "Hornby", "brand": "Z", "brand:wikidata": "Q8063337", "brand:wikipedia": "en:Z Energy", "fuel:diesel": "yes", "fuel:octane_91": "yes", "fuel:octane_95": "yes", "name": "Z", "opening_hours": "24/7", "phone": "+64 3 349 9129"}}, {"type": "node", "id": 2743426484, "lat": -43.5648638, "lon": 172.6858461, "tags": {"amenity": "fuel", "brand": "BP", "brand:wikidata": "Q152057", "brand:wikipedia": "en:BP", "name": "BP Truckstop"}}, {"type": "node", "id": 2743426486, "lat": -43.523239, "lon": 172.7320484, "tags": {"amenity": "fuel", "branch": "New Brighton", "brand": "Challenge", "brand:wikidata": "Q5068888", "fuel:diesel": "yes", "fuel:octane_91": "yes", "fuel:octane_95": "yes", "name": "Challenge", "official_name": "Challenge New Brighton", "opening_hours": "Mo-Fr 07:00-20:00; Sa 08:00-20:00; Su 08:00-19:00", "phone": "+64 3 388 9504", "website": "https://challenge.net.nz/challenge-stations/station/challenge-southshore"}}, {"type": "node", "id": 3118342744, "lat": -43.5401074, "lon": 172.6423727}, {"type": "node", "id": 3118342746, "lat": -43.5405557, "lon": 172.6423817}, {"type": "node", "id": 3359128015, "lat": -43.5506926, "lon": 172.5994083, "tags": {"addr:city": "Christchurch", "addr:country": "NZ", "addr:housenumber": "55", "addr:postcode": "8024", "addr:street": "Lincoln Road", "addr:suburb": "Hillmorton", "amenity": "fuel", "branch": "Lincoln Road", "brand": "npd", "brand:wikidata": "Q110922616", "fuel:diesel": "yes", "fuel:octane_91": "yes", "fuel:octane_95": "yes", "name": "npd", "opening_hours": "Mo-Fr 06:00-22:00; Sa 07:00-22:00; Su 07:00-21:00", "phone": "+64 3 338 5756", "ref:linz:address_id": "199888", "wheelchair": "yes"}}, {"type": "node", "id": 3401480826, "lat": -43.4632062, "lon": 172.5837183}, {"type": "node", "id": 3902429104, "lat": -43.5481087, "lon": 172.6573204}, {"type": "node", "id": 3902429105, "lat": -43.5482894, "lon": 172.6572899}, {"type": "node", "id": 3902429113, "lat": -43.5473035, "lon": 172.6543251}, {"type": "node", "id": 3902429114, "lat": -43.5472036, "lon": 172.654498}, {"type": "node", "id": 3902429115, "lat": -43.5471883, "lon": 172.6544811}, {"type": "node", "id": 3902429116, "lat": -43.5471648, "lon": 172.6545217}, {"type": "node", "id": 3902429117, "lat": -43.5471284, "lon": 172.6544817}, {"type": "node", "id": 3902429118, "lat": -43.5471473, "lon": 172.654449}, {"type": "node", "id": 3902429119, "lat": -43.5471072, "lon": 172.6544049}, {"type": "node", "id": 3902429120, "lat": -43.5471277, "lon": 172.6543695}, {"type": "node", "id": 3902429121, "lat": -43.5471044, "lon": 172.6543439}, {"type": "node", "id": 3902429122, "lat": -43.5471884, "lon": 172.6541986}, {"type": "node", "id": 4111382327, "lat": -43.5495344, "lon": 172.4883783}, {"type": "node", "id": 4210093500, "lat": -43.5384484, "lon": 172.567957}, {"type": "node", "id": 4210093532, "lat": -43.5385394, "lon": 172.5679722}, {"type": "node", "id": 4210093535, "lat": -43.5385614, "lon": 172.5677218}, {"type": "node", "id": 4261827290, "lat": -43.5047403, "lon": 172.6020576, "tags": {"addr:city": "Christchurch", "addr:country": "NZ", "addr:housenumber": "52", "addr:postcode": "8052", "addr:street": "Blighs Road", "amenity": "fuel", "brand": "Challenge", "brand:wikidata": "Q5068888", "brand:wikipedia": "en:Challenge (company)", "name": "Challenge", "self_service": "no"}}, {"type": "node", "id": 4386923556, "lat": -43.5480984, "lon": 172.6572037}, {"type": "node", "id": 4402407607, "lat": -43.5128038, "lon": 172.6372561}, {"type": "node", "id": 4402407608, "lat": -43.5127119, "lon": 172.6372547}, {"type": "node", "id": 4402407609, "lat": -43.5127239, "lon": 172.638074}, {"type": "node", "id": 4407858641, "lat": -43.4743546, "lon": 172.6596755}, {"type": "node", "id": 4407858647, "lat": -43.4744172, "lon": 172.6596145}, {"type": "node", "id": 4413017132, "lat": -43.5652811, "lon": 172.6361292}, {"type": "node", "id": 4416998124, "lat": -43.571988, "lon": 172.5706632}, {"type": "node", "id": 4416998127, "lat": -43.572066, "lon": 172.5708978}, {"type": "node", "id": 4416998133, "lat": -43.5721042, "lon": 172.5705896}, {"type": "node", "id": 4416998139, "lat": -43.5721822, "lon": 172.5708243}, {"type": "node", "id": 4435513329, "lat": -43.4631944, "lon": 172.5827096}, {"type": "node", "id": 4435513330, "lat": -43.462888, "lon": 172.5830457}, {"type": "node", "id": 4437029027, "lat": -43.4952338, "lon": 172.7103569}, {"type": "node", "id": 4437029031, "lat": -43.4952458, "lon": 172.7105266}, {"type": "node", "id": 4437029066, "lat": -43.4955185, "lon": 172.7103186}, {"type": "node", "id": 4437029068, "lat": -43.4955306, "lon": 172.7104883}, {"type": "node", "id": 4437029562, "lat": -43.5059302, "lon": 172.7282849}, {"type": "node", "id": 4437029573, "lat": -43.5060707, "lon": 172.7276723}, {"type": "node", "id": 4437029582, "lat": -43.5062667, "lon": 172.7284151}, {"type": "node", "id": 4437029584, "lat": -43.5064299, "lon": 172.7278138}, {"type": "node", "id": 4474433339, "lat": -43.5351214, "lon": 172.6458632}, {"type": "node", "id": 4474433340, "lat": -43.5351712, "lon": 172.645934}, {"type": "node", "id": 4474433341, "lat": -43.5352035, "lon": 172.6458931}, {"type": "node", "id": 4474433342, "lat": -43.5352049, "lon": 172.6458662}, {"type": "node", "id": 4571424468, "lat": -43.549038, "lon": 172.5115648, "tags": {"amenity": "fuel", "brand": "Independent", "fuel:HGV_diesel": "yes", "fuel:diesel": "yes", "fuel:octane_91": "yes", "opening_hours": "24/7", "payment:cash": "no", "payment:girocard": "yes", "payment:mastercard": "yes", "payment:visa": "yes", "shop": "no", "wheelchair": "no"}}, {"type": "node", "id": 4572092709, "lat": -43.4733612, "lon": 172.6176128}, {"type": "node", "id": 4572092710, "lat": -43.4732916, "lon": 172.6176207}, {"type": "node", "id": 4572092713, "lat": -43.4734644, "lon": 172.6175146}, {"type": "node", "id": 4572092714, "lat": -43.4731385, "lon": 172.617635}, {"type": "node", "id": 4572092715, "lat": -43.4734683, "lon": 172.6176088}, {"type": "node", "id": 4903724898, "lat": -43.5124812, "lon": 172.6925703, "tags": {"amenity": "fuel", "fuel:diesel": "yes", "fuel:octane_91": "yes", "fuel:octane_95": "yes", "name": "Pak'nSave Fuel", "opening_hours": "24/7", "operator": "Foodstuffs"}}, {"type": "node", "id": 4928216456, "lat": -43.5127254, "lon": 172.6377554}, {"type": "node", "id": 4928216457, "lat": -43.5127134, "lon": 172.6377559}, {"type": "node", "id": 5242398919, "lat": -43.4786758, "lon": 172.5550157}, {"type": "node", "id": 5242398920, "lat": -43.4795514, "lon": 172.5547151}, {"type": "node", "id": 5242399021, "lat": -43.4797114, "lon": 172.5556607}, {"type": "node", "id": 5242399022, "lat": -43.4791373, "lon": 172.555823}, {"type": "node", "id": 5242399023, "lat": -43.4789798, "lon": 172.5552536}, {"type": "node", "id": 5242399024, "lat": -43.4788413, "lon": 172.5551927}, {"type": "node", "id": 5242399025, "lat": -43.4787938, "lon": 172.5551039}, {"type": "node", "id": 5242399026, "lat": -43.4787297, "lon": 172.5551621}, {"type": "node", "id": 5288396722, "lat": -43.5403053, "lon": 172.6223679}, {"type": "node", "id": 5288396723, "lat": -43.5405087, "lon": 172.621942}, {"type": "node", "id": 5319160414, "lat": -43.4750017, "lon": 172.6596587}, {"type": "node", "id": 5421404620, "lat": -43.5419858, "lon": 172.6875437, "tags": {"addr:city": "Christchurch", "addr:country": "NZ", "addr:housenumber": "457", "addr:street": "Linwood Avenue", "amenity": "fuel", "brand": "BP", "brand:wikidata": "Q152057", "brand:wikipedia": "en:BP", "compressed_air": "yes", "name": "BP Linwood", "operator": "BP"}}, {"type": "node", "id": 5421435308, "lat": -43.5630383, "lon": 172.6577284, "tags": {"amenity": "fuel", "brand": "Mobil", "brand:wikidata": "Q109676002", "brand:wikipedia": "ja:\u30e2\u30fc\u30d3\u30eb (\u30d6\u30e9\u30f3\u30c9)", "name": "Mobil", "operator": "Mobil NZ"}}, {"type": "node", "id": 5899286595, "lat": -43.5537242, "lon": 172.6270791, "tags": {"access": "yes", "addr:city": "Christchurch", "addr:country": "NZ", "addr:housenumber": "115", "addr:postcode": "8024", "addr:street": "Milton Street", "entrance": "shop"}}, {"type": "node", "id": 5899286596, "lat": -43.5536448, "lon": 172.6270605}, {"type": "node", "id": 5899286597, "lat": -43.5535144, "lon": 172.6272848}, {"type": "node", "id": 5899286598, "lat": -43.5536053, "lon": 172.6273887}, {"type": "node", "id": 5899286599, "lat": -43.5536782, "lon": 172.6272643}, {"type": "node", "id": 5899286600, "lat": -43.5537145, "lon": 172.6272027}, {"type": "node", "id": 5899286601, "lat": -43.5537559, "lon": 172.6271341}, {"type": "node", "id": 5899286602, "lat": -43.553676, "lon": 172.6270773}, {"type": "node", "id": 5899286603, "lat": -43.5536691, "lon": 172.6270888}, {"type": "node", "id": 5899286604, "lat": -43.5536892, "lon": 172.6270914}, {"type": "node", "id": 5899286605, "lat": -43.5537326, "lon": 172.6271075}, {"type": "node", "id": 5899286606, "lat": -43.5537068, "lon": 172.6270596}, {"type": "node", "id": 5899286607, "lat": -43.5537393, "lon": 172.6270954}, {"type": "node", "id": 5899286609, "lat": -43.553749, "lon": 172.6272427}, {"type": "node", "id": 5899286610, "lat": -43.5537924, "lon": 172.6271747}, {"type": "node", "id": 5899286611, "lat": -43.5538558, "lon": 172.6272427}, {"type": "node", "id": 5899286612, "lat": -43.5537266, "lon": 172.6274562}, {"type": "node", "id": 5899286613, "lat": -43.5536649, "lon": 172.6273844}, {"type": "node", "id": 5899286614, "lat": -43.5537135, "lon": 172.6273055}, {"type": "node", "id": 5963278855, "lat": -43.5210358, "lon": 172.6449281}, {"type": "node", "id": 5963278856, "lat": -43.5214788, "lon": 172.6449349}, {"type": "node", "id": 5963278857, "lat": -43.5214805, "lon": 172.6455323}, {"type": "node", "id": 5963278858, "lat": -43.5210358, "lon": 172.6455232}, {"type": "node", "id": 6059190736, "lat": -43.5698149, "lon": 172.6851642}, {"type": "node", "id": 6059190737, "lat": -43.5697833, "lon": 172.6859216}, {"type": "node", "id": 6059190738, "lat": -43.5702477, "lon": 172.685999}, {"type": "node", "id": 6059190739, "lat": -43.570107, "lon": 172.6851792}, {"type": "node", "id": 6110251873, "lat": -43.5481349, "lon": 172.6571975}, {"type": "node", "id": 6110251874, "lat": -43.5482788, "lon": 172.6571733}, {"type": "node", "id": 6114347915, "lat": -43.5466495, "lon": 172.5611208}, {"type": "node", "id": 6114347916, "lat": -43.5465671, "lon": 172.5612634}, {"type": "node", "id": 6114347917, "lat": -43.5467769, "lon": 172.5614943}, {"type": "node", "id": 6114347918, "lat": -43.5468593, "lon": 172.5613516}, {"type": "node", "id": 6183115416, "lat": -43.484781, "lon": 172.5493645}, {"type": "node", "id": 6183115417, "lat": -43.4844021, "lon": 172.5498009}, {"type": "node", "id": 6183115418, "lat": -43.4844665, "lon": 172.5499061}, {"type": "node", "id": 6183115441, "lat": -43.4850696, "lon": 172.5498364}, {"type": "node", "id": 6265421879, "lat": -43.4749672, "lon": 172.6602491}, {"type": "node", "id": 6265421881, "lat": -43.4743265, "lon": 172.6601864}, {"type": "node", "id": 6265421887, "lat": -43.4745448, "lon": 172.6602065}, {"type": "node", "id": 6633190276, "lat": -43.5226733, "lon": 172.6568473, "tags": {"amenity": "fuel", "brand": "npd", "brand:wikidata": "Q110922616", "fuel:diesel": "yes", "fuel:octane_91": "yes", "name": "npd"}}, {"type": "node", "id": 6794162214, "lat": -43.4790769, "lon": 172.5554149}, {"type": "node", "id": 6794162215, "lat": -43.4791919, "lon": 172.5553792}, {"type": "node", "id": 6794162216, "lat": -43.4792376, "lon": 172.5556587}, {"type": "node", "id": 6794162217, "lat": -43.4791226, "lon": 172.5556944}, {"type": "node", "id": 6863005246, "lat": -43.5384593, "lon": 172.5678333}, {"type": "node", "id": 6872669498, "lat": -43.5359166, "lon": 172.6425491}, {"type": "node", "id": 6872669499, "lat": -43.5358899, "lon": 172.6424534}, {"type": "node", "id": 6872669501, "lat": -43.5358179, "lon": 172.6423202}, {"type": "node", "id": 6872669502, "lat": -43.5358534, "lon": 172.6422737}, {"type": "node", "id": 6872669505, "lat": -43.5354008, "lon": 172.6419827}, {"type": "node", "id": 6872669506, "lat": -43.5353981, "lon": 172.6425066}, {"type": "node", "id": 6872669507, "lat": -43.5354141, "lon": 172.642543}, {"type": "node", "id": 6917905789, "lat": -43.5401081, "lon": 172.6415041}, {"type": "node", "id": 6917905790, "lat": -43.540553, "lon": 172.6415039}, {"type": "node", "id": 7103304053, "lat": -43.5073752, "lon": 172.6625337}, {"type": "node", "id": 7103304055, "lat": -43.5073072, "lon": 172.6625256}, {"type": "node", "id": 7103304056, "lat": -43.5073275, "lon": 172.662188}, {"type": "node", "id": 7103304073, "lat": -43.5073284, "lon": 172.6621783}, {"type": "node", "id": 7103304074, "lat": -43.5074711, "lon": 172.6621859}, {"type": "node", "id": 7103304075, "lat": -43.507551, "lon": 172.6622095}, {"type": "node", "id": 7103304076, "lat": -43.5076681, "lon": 172.6623137}, {"type": "node", "id": 7103304077, "lat": -43.5079573, "lon": 172.6623112}, {"type": "node", "id": 7103304078, "lat": -43.5079573, "lon": 172.6624727}, {"type": "node", "id": 7103304079, "lat": -43.5078656, "lon": 172.6627328}, {"type": "node", "id": 7103304080, "lat": -43.5073631, "lon": 172.6626788}, {"type": "node", "id": 7103304081, "lat": -43.5078935, "lon": 172.6626969}, {"type": "node", "id": 7199453352, "lat": -43.5211786, "lon": 172.6449302}, {"type": "node", "id": 7199453353, "lat": -43.5212622, "lon": 172.6449286}, {"type": "node", "id": 7202499991, "lat": -43.5401307, "lon": 172.6272385}, {"type": "node", "id": 7252153969, "lat": -43.5351593, "lon": 172.6458145}, {"type": "node", "id": 7298686684, "lat": -43.4788895, "lon": 172.5552359}, {"type": "node", "id": 7298689885, "lat": -43.4790582, "lon": 172.5554042}, {"type": "node", "id": 7298689886, "lat": -43.478886, "lon": 172.5552352}, {"type": "node", "id": 7298689887, "lat": -43.478739, "lon": 172.555144}, {"type": "node", "id": 7368267944, "lat": -43.5354127, "lon": 172.6502994}, {"type": "node", "id": 7387715265, "lat": -43.5353748, "lon": 172.650246}, {"type": "node", "id": 7387715266, "lat": -43.5355858, "lon": 172.6498045}, {"type": "node", "id": 7387715267, "lat": -43.5357311, "lon": 172.650306}, {"type": "node", "id": 7387715270, "lat": -43.5357297, "lon": 172.6498066}, {"type": "node", "id": 7387715275, "lat": -43.5356332, "lon": 172.6498052}, {"type": "node", "id": 7387754207, "lat": -43.5359064, "lon": 172.6424977}, {"type": "node", "id": 7387754209, "lat": -43.5355233, "lon": 172.6421523}, {"type": "node", "id": 7579381176, "lat": -43.5192517, "lon": 172.5796249}, {"type": "node", "id": 7579381177, "lat": -43.5193446, "lon": 172.5796621}, {"type": "node", "id": 7579381178, "lat": -43.5193415, "lon": 172.5796764}, {"type": "node", "id": 7579381179, "lat": -43.5193505, "lon": 172.57968}, {"type": "node", "id": 7579381180, "lat": -43.5193599, "lon": 172.5796354}, {"type": "node", "id": 7579381181, "lat": -43.5194652, "lon": 172.5796777}, {"type": "node", "id": 7579381182, "lat": -43.5194449, "lon": 172.5797736}, {"type": "node", "id": 7579381183, "lat": -43.51933, "lon": 172.5797274}, {"type": "node", "id": 7579381184, "lat": -43.5193264, "lon": 172.5797447}, {"type": "node", "id": 7596997671, "lat": -43.4850914, "lon": 172.5498936}, {"type": "node", "id": 7596997672, "lat": -43.4847265, "lon": 172.5503334}, {"type": "node", "id": 7738509296, "lat": -43.5157963, "lon": 172.5720635}, {"type": "node", "id": 7738509297, "lat": -43.5157852, "lon": 172.5722062}, {"type": "node", "id": 7738509298, "lat": -43.5157563, "lon": 172.5722018}, {"type": "node", "id": 7738509299, "lat": -43.5157479, "lon": 172.5723092}, {"type": "node", "id": 7738509300, "lat": -43.5158885, "lon": 172.57233}, {"type": "node", "id": 7738509301, "lat": -43.5158969, "lon": 172.5722227}, {"type": "node", "id": 7738509302, "lat": -43.5159055, "lon": 172.572224}, {"type": "node", "id": 7738509303, "lat": -43.5159166, "lon": 172.5720813}, {"type": "node", "id": 7828086296, "lat": -43.5384704, "lon": 172.5677066}, {"type": "node", "id": 7989042423, "lat": -43.5573071, "lon": 172.6187214}, {"type": "node", "id": 7989042424, "lat": -43.5573065, "lon": 172.6184238}, {"type": "node", "id": 7989042425, "lat": -43.5572017, "lon": 172.618606}, {"type": "node", "id": 7989042426, "lat": -43.5574119, "lon": 172.6185392}, {"type": "node", "id": 8043801134, "lat": -43.5133389, "lon": 172.6376196}, {"type": "node", "id": 8043801143, "lat": -43.5131891, "lon": 172.6379447}, {"type": "node", "id": 8043801144, "lat": -43.5133113, "lon": 172.6379205}, {"type": "node", "id": 8043801145, "lat": -43.5133405, "lon": 172.6378841}, {"type": "node", "id": 8043801267, "lat": -43.5131219, "lon": 172.6379575}, {"type": "node", "id": 8043801268, "lat": -43.5130581, "lon": 172.6379795}, {"type": "node", "id": 8043801269, "lat": -43.5129849, "lon": 172.6380099}, {"type": "node", "id": 8043801279, "lat": -43.5128925, "lon": 172.6380425}, {"type": "node", "id": 8262714193, "lat": -43.5442686, "lon": 172.5680016, "tags": {"amenity": "fuel"}}, {"type": "node", "id": 8288963782, "lat": -43.4710994, "lon": 172.5704832}, {"type": "node", "id": 8288963785, "lat": -43.4711327, "lon": 172.5703694}, {"type": "node", "id": 8288963786, "lat": -43.4711498, "lon": 172.570379}, {"type": "node", "id": 8288963787, "lat": -43.4711874, "lon": 172.5702523}, {"type": "node", "id": 8288963788, "lat": -43.4709298, "lon": 172.5701068}, {"type": "node", "id": 8288963789, "lat": -43.4708992, "lon": 172.5702097}, {"type": "node", "id": 8288963790, "lat": -43.4709313, "lon": 172.5702278}, {"type": "node", "id": 8288963791, "lat": -43.4708888, "lon": 172.5703608}, {"type": "node", "id": 8301884682, "lat": -43.5452503, "lon": 172.6715645, "tags": {"addr:city": "Christchurch", "addr:country": "NZ", "addr:housenumber": "464", "addr:postcode": "8023", "addr:street": "Ferry Road", "amenity": "fuel", "branch": "Woolston", "brand": "Gull", "brand:wikidata": "Q111949119", "brand:wikipedia": "en:Gull Petroleum", "compressed_air": "yes", "fuel:diesel": "yes", "fuel:octane_91": "yes", "fuel:octane_95": "yes", "name": "Gull Woolston", "opening_hours": "24/7", "self_service": "yes", "wheelchair": "yes"}}, {"type": "node", "id": 8504781945, "lat": -43.5821932, "lon": 172.5692494}, {"type": "node", "id": 8504781946, "lat": -43.582524, "lon": 172.5694832}, {"type": "node", "id": 8504781947, "lat": -43.5825043, "lon": 172.5695352}, {"type": "node", "id": 8504781948, "lat": -43.5826149, "lon": 172.5696217}, {"type": "node", "id": 8504781949, "lat": -43.5827623, "lon": 172.5692389}, {"type": "node", "id": 8504781950, "lat": -43.582285, "lon": 172.5688987}, {"type": "node", "id": 8585377220, "lat": -43.5401976, "lon": 172.6166323}, {"type": "node", "id": 8585377221, "lat": -43.5404627, "lon": 172.6167706}, {"type": "node", "id": 8585377222, "lat": -43.540411, "lon": 172.6169464}, {"type": "node", "id": 8585377223, "lat": -43.5401491, "lon": 172.6168141}, {"type": "node", "id": 8585797835, "lat": -43.5401468, "lon": 172.6171217}, {"type": "node", "id": 8839961293, "lat": -43.5403045, "lon": 172.6219428}, {"type": "node", "id": 8839961294, "lat": -43.5405096, "lon": 172.6223671}, {"type": "node", "id": 8840163854, "lat": -43.5401842, "lon": 172.6277966}, {"type": "node", "id": 8871638716, "lat": -43.5404583, "lon": 172.6219422}, {"type": "node", "id": 8871711846, "lat": -43.5408018, "lon": 172.6272433}, {"type": "node", "id": 8871711848, "lat": -43.5408005, "lon": 172.6278007}, {"type": "node", "id": 8908484131, "lat": -43.5133378, "lon": 172.6373508}, {"type": "node", "id": 8908484132, "lat": -43.5132898, "lon": 172.6373497}, {"type": "node", "id": 8908484133, "lat": -43.5132906, "lon": 172.6372628}, {"type": "node", "id": 9097371421, "lat": -43.5122192, "lon": 172.5041281, "tags": {"amenity": "fuel", "brand": "Mobil", "fuel:diesel": "yes", "name": "Mobil Yaldhurst", "operator": "Mobil"}}, {"type": "node", "id": 9231583060, "lat": -43.569885, "lon": 172.686122}, {"type": "node", "id": 9231583061, "lat": -43.5698066, "lon": 172.6861095}, {"type": "node", "id": 9231583062, "lat": -43.5697368, "lon": 172.6859669}, {"type": "node", "id": 9348570244, "lat": -43.5482802, "lon": 172.6571887}, {"type": "node", "id": 9351495625, "lat": -43.5656125, "lon": 172.636801}, {"type": "node", "id": 9351495626, "lat": -43.565016, "lon": 172.6363421}, {"type": "node", "id": 9351495627, "lat": -43.5650128, "lon": 172.6364777}, {"type": "node", "id": 9351495628, "lat": -43.5651171, "lon": 172.6364808}, {"type": "node", "id": 9352124904, "lat": -43.5183636, "lon": 172.525579}, {"type": "node", "id": 9352124905, "lat": -43.5184144, "lon": 172.5257436}, {"type": "node", "id": 9352124906, "lat": -43.5182127, "lon": 172.5258618}, {"type": "node", "id": 9352124907, "lat": -43.518162, "lon": 172.5256973}, {"type": "node", "id": 9368717467, "lat": -43.5353792, "lon": 172.6502629}, {"type": "node", "id": 9368717468, "lat": -43.535404, "lon": 172.650295}, {"type": "node", "id": 9374661025, "lat": -43.5601938, "lon": 172.5486454}, {"type": "node", "id": 9374661026, "lat": -43.5603738, "lon": 172.5484625}, {"type": "node", "id": 9374661027, "lat": -43.5605978, "lon": 172.5488822}, {"type": "node", "id": 9374661030, "lat": -43.5604178, "lon": 172.5490652}, {"type": "node", "id": 9387624596, "lat": -43.5484864, "lon": 172.4901605}, {"type": "node", "id": 9387624597, "lat": -43.5489949, "lon": 172.4904633}, {"type": "node", "id": 9393260350, "lat": -43.5312776, "lon": 172.5763259}, {"type": "node", "id": 9457153667, "lat": -43.5388131, "lon": 172.5484277}, {"type": "node", "id": 9457153668, "lat": -43.5390309, "lon": 172.5486447}, {"type": "node", "id": 9457153669, "lat": -43.5389539, "lon": 172.5487918}, {"type": "node", "id": 9457153670, "lat": -43.5387361, "lon": 172.5485749}, {"type": "node", "id": 9482856642, "lat": -43.5385568, "lon": 172.5677743}, {"type": "node", "id": 9596423679, "lat": -43.4984248, "lon": 172.6285572, "tags": {"addr:country": "NZ", "amenity": "fuel", "brand": "Waitomo", "brand:wikidata": "Q112569504", "fuel:diesel": "yes", "fuel:octane_91": "yes", "fuel:octane_95": "yes", "name": "Waitomo Cranford", "opening_hours": "24/7", "self_service": "only"}}, {"type": "node", "id": 9713285287, "lat": -43.5401287, "lon": 172.6277156}, {"type": "node", "id": 9818713700, "lat": -43.5472228, "lon": 172.679716, "tags": {"amenity": "fuel", "branch": "Woolston", "brand": "Waitomo", "brand:wikidata": "Q112569504", "compressed_air": "yes", "name": "Waitomo", "name:mi": "Waitomo"}}, {"type": "node", "id": 9861795588, "lat": -43.5200698, "lon": 172.6269639}, {"type": "node", "id": 9916629639, "lat": -43.56579, "lon": 172.5247184}, {"type": "node", "id": 9916629640, "lat": -43.5658683, "lon": 172.5249233}, {"type": "node", "id": 9916629641, "lat": -43.5659833, "lon": 172.5248396}, {"type": "node", "id": 9916629642, "lat": -43.565905, "lon": 172.5246347}, {"type": "node", "id": 9984542944, "lat": -43.4918815, "lon": 172.5725197}, {"type": "node", "id": 9984542945, "lat": -43.4917508, "lon": 172.5727931}, {"type": "node", "id": 9984542946, "lat": -43.4918582, "lon": 172.5728907}, {"type": "node", "id": 9984542947, "lat": -43.4919889, "lon": 172.5726173}, {"type": "node", "id": 9999005048, "lat": -43.4848148, "lon": 172.5494203}, {"type": "node", "id": 10055621692, "lat": -43.4628818, "lon": 172.5831765}, {"type": "node", "id": 10055621693, "lat": -43.4634228, "lon": 172.5834763}, {"type": "node", "id": 10055621694, "lat": -43.4634579, "lon": 172.583415}, {"type": "node", "id": 10055621695, "lat": -43.4634754, "lon": 172.5833258}, {"type": "node", "id": 10055621696, "lat": -43.4634713, "lon": 172.5832441}, {"type": "node", "id": 10055621697, "lat": -43.4634228, "lon": 172.5831011}, {"type": "node", "id": 10055621698, "lat": -43.4634525, "lon": 172.5831707}, {"type": "node", "id": 10220469397, "lat": -43.5482736, "lon": 172.4908243}, {"type": "node", "id": 10220469398, "lat": -43.5488006, "lon": 172.4910709}, {"type": "node", "id": 10220469399, "lat": -43.5487256, "lon": 172.4910996}, {"type": "node", "id": 10314207202, "lat": -43.5401491, "lon": 172.6164224}, {"type": "node", "id": 10314207203, "lat": -43.5405941, "lon": 172.616647}, {"type": "node", "id": 10314207204, "lat": -43.5403163, "lon": 172.6171172}, {"type": "node", "id": 10844982710, "lat": -43.5394098, "lon": 172.494326}, {"type": "node", "id": 10844982711, "lat": -43.5395323, "lon": 172.4944011}, {"type": "node", "id": 10844982712, "lat": -43.5404734, "lon": 172.4939237}, {"type": "node", "id": 10844982713, "lat": -43.5404714, "lon": 172.4935616}, {"type": "node", "id": 10844982714, "lat": -43.5402818, "lon": 172.4928511}, {"type": "node", "id": 10844982715, "lat": -43.5394454, "lon": 172.4933471}, {"type": "node", "id": 10844982716, "lat": -43.5393432, "lon": 172.4934078}, {"type": "node", "id": 10844982717, "lat": -43.5394623, "lon": 172.4938164}, {"type": "node", "id": 10844982718, "lat": -43.5404723, "lon": 172.4937225}, {"type": "node", "id": 10863798266, "lat": -43.5546849, "lon": 172.517555}, {"type": "node", "id": 10863798267, "lat": -43.5547604, "lon": 172.5174234}, {"type": "node", "id": 10863798268, "lat": -43.5548613, "lon": 172.5175336}, {"type": "node", "id": 10863798269, "lat": -43.5547858, "lon": 172.5176653}, {"type": "node", "id": 10863798270, "lat": -43.5365828, "lon": 172.5292529}, {"type": "node", "id": 10863798271, "lat": -43.536688, "lon": 172.5291929}, {"type": "node", "id": 10863798272, "lat": -43.5367613, "lon": 172.5294376}, {"type": "node", "id": 10863798273, "lat": -43.5366561, "lon": 172.5294975}, {"type": "node", "id": 10886085995, "lat": -43.547049, "lon": 172.6455112}, {"type": "node", "id": 10886085996, "lat": -43.547186, "lon": 172.6455116}, {"type": "node", "id": 10886085997, "lat": -43.5471854, "lon": 172.6458463}, {"type": "node", "id": 10886085998, "lat": -43.5470484, "lon": 172.6458458}, {"type": "node", "id": 10895638403, "lat": -43.5492129, "lon": 172.6818435}, {"type": "node", "id": 10895638404, "lat": -43.5490114, "lon": 172.682047}, {"type": "node", "id": 10895645205, "lat": -43.5490908, "lon": 172.6821967}, {"type": "node", "id": 10895645206, "lat": -43.5492923, "lon": 172.6819932}, {"type": "node", "id": 10947839231, "lat": -43.5571587, "lon": 172.5237051}, {"type": "node", "id": 10947839232, "lat": -43.5570281, "lon": 172.5239304}, {"type": "node", "id": 10947839233, "lat": -43.557406, "lon": 172.524367}, {"type": "node", "id": 10947839234, "lat": -43.5574767, "lon": 172.5242501}, {"type": "node", "id": 10947839235, "lat": -43.5576019, "lon": 172.5242286}, {"type": "node", "id": 10991112176, "lat": -43.564448, "lon": 172.6083515, "tags": {"amenity": "fuel", "branch": "Hoon Hay", "brand": "BP", "brand:wikidata": "Q152057", "fuel:diesel": "yes", "fuel:octane_91": "yes", "fuel:octane_98": "yes", "name": "BP Connect", "official_name": "BP Connect Hoon Hay", "opening_hours": "24/7", "phone": "+64 3 982 7300"}}, {"type": "way", "id": 35402192, "nodes": [415302559, 415302560, 415302561, 415302562, 415302563, 415302564, 4111382327, 415302565, 415302559], "tags": {"amenity": "fuel", "brand": "Z", "brand:wikidata": "Q8063337", "brand:wikipedia": "en:Z Energy", "name": "Z Templeton"}}, {"type": "way", "id": 40337489, "nodes": [486849593, 9351495628, 9351495627, 9351495626, 486849598, 4413017132, 486849604, 9351495625, 486849606, 486849593], "tags": {"amenity": "fuel", "branch": "Cashmere", "brand": "Z", "brand:wikidata": "Q8063337", "brand:wikipedia": "en:Z Energy", "fuel:diesel": "yes", "fuel:octane_91": "yes", "fuel:octane_95": "yes", "landuse": "retail", "name": "Z", "opening_hours": "Mo-Su 06:00-24:00", "phone": "+64 3 332 2646", "website": "https://z.co.nz", "wheelchair": "yes"}}, {"type": "way", "id": 42166493, "nodes": [524866606, 524866607, 524866608, 524866612, 524866615, 524866619, 524866606], "tags": {"addr:city": "Christchurch", "addr:country": "NZ", "addr:postcode": "8042", "addr:street": "Main South Road", "amenity": "fuel", "branch": "Hornby", "brand": "Caltex", "brand:wikidata": "Q277470", "brand:wikipedia": "en:Caltex", "name": "Caltex", "operator": "Caltex"}}, {"type": "way", "id": 101514325, "nodes": [1172151460, 1176480485, 1172151463, 1172151464, 1172151460], "tags": {"amenity": "fuel", "brand": "PAK'nSAVE Fuel", "brand:wikidata": "Q115215489", "fuel:diesel": "yes", "fuel:octane_91": "yes", "layer": "1", "name": "PAK'nSAVE Fuel", "opening_hours": "24/7", "payment:credit_cards": "yes", "source": "Bing", "wheelchair": "yes"}}, {"type": "way", "id": 101729941, "nodes": [1174650924, 1174651533, 1174651176, 1174650979, 1174651039, 1174652046, 1174652038, 1174651475, 1174651292, 1174651191, 1174650924], "tags": {"amenity": "fuel", "brand": "BP", "brand:wikidata": "Q152057", "brand:wikipedia": "en:BP", "building": "yes", "fuel:octane_91": "yes", "name": "BP", "source": "Bing, Mar/2008"}}, {"type": "way", "id": 139333020, "nodes": [1527793388, 1527793352, 1527793445, 9861795588, 1527793444, 1527793388], "tags": {"addr:city": "Christchurch", "addr:country": "NZ", "addr:housenumber": "1", "addr:street": "Papanui Road", "amenity": "fuel", "branch": "Carlton Corner", "brand": "Z", "brand:wikidata": "Q8063337", "brand:wikipedia": "en:Z Energy", "building": "retail", "fuel:diesel": "yes", "fuel:octane_91": "yes", "fuel:octane_95": "yes", "height": "3.7", "name": "Z", "opening_hours": "24/7", "phone": "+64 3 355 9532"}}, {"type": "way", "id": 158300969, "nodes": [1705269808, 1705269809, 1705269810, 1705269811, 1705269812, 1705269808], "tags": {"amenity": "fuel", "brand": "Challenge", "brand:wikidata": "Q5068888", "brand:wikipedia": "en:Challenge (company)", "building": "commercial", "name": "Rocky Point", "operator": "Challenge", "source": "Bing;survey"}}, {"type": "way", "id": 182651240, "nodes": [1930116704, 1930116701, 1930116700, 1930116703, 1930116704], "tags": {"amenity": "fuel", "branch": "Sydenham", "brand": "Mobil", "brand:wikidata": "Q109676002", "brand:wikipedia": "ja:\u30e2\u30fc\u30d3\u30eb (\u30d6\u30e9\u30f3\u30c9)", "building": "retail", "diesel": "yes", "fuel:octane_95": "yes", "name": "Mobil", "opening_hours": "24/7", "operator": "Mobil", "source": "Bing"}}, {"type": "way", "id": 204082001, "nodes": [2140974333, 2140974335, 2140974331, 2140974337, 2140974334, 2140974338, 2140974333], "tags": {"amenity": "fuel", "brand": "BP", "brand:wikidata": "Q152057", "brand:wikipedia": "en:BP", "building": "retail", "fuel:GTL_diesel": "no", "fuel:HGV_diesel": "no", "fuel:cng": "no", "fuel:diesel": "yes", "fuel:e10": "no", "fuel:e85": "no", "fuel:electricity": "no", "fuel:lpg": "yes", "fuel:octane_91": "yes", "fuel:octane_95": "no", "fuel:octane_98": "yes", "name": "BP2Go Redcliffs", "source": "Ground truth", "source:geometry": "LINZ"}}, {"type": "way", "id": 206609582, "nodes": [2166372233, 9393260350, 2166372284, 2166372242, 2166372241, 2166372254, 2166372264, 2166372257, 2166372261, 2166372275, 2166372239, 2166372273, 2166372230, 2166372233], "tags": {"addr:city": "Christchurch", "addr:country": "NZ", "addr:housenumber": "336", "addr:street": "Riccarton Road", "addr:suburb": "Upper Riccarton", "amenity": "fuel", "branch": "Bush Inn", "brand": "BP", "brand:wikidata": "Q152057", "brand:wikipedia": "en:BP", "building": "retail", "building:levels": "1", "layer": "1", "name": "BP Connect", "ref:linz:address_id": "183271", "roof:shape": "flat", "wheelchair": "yes"}}, {"type": "way", "id": 305820364, "nodes": [4402407608, 4402407607, 8908484133, 8908484132, 8908484131, 8043801134, 8043801145, 8043801144, 8043801143, 8043801267, 8043801268, 8043801269, 8043801279, 4402407609, 4928216456, 4928216457, 4402407608]}, {"type": "way", "id": 386888307, "nodes": [4386923556, 3902429104, 3902429105, 9348570244, 6110251874, 6110251873, 4386923556], "tags": {"addr:city": "Christchurch", "addr:country": "NZ", "addr:housenumber": "495", "addr:street": "Brougham Street", "amenity": "fuel", "branch": "Brougham Street", "brand": "Z", "brand:wikidata": "Q8063337", "brand:wikipedia": "en:Z Energy", "building": "retail", "compressed_air": "yes", "fuel:diesel": "yes", "fuel:octane_91": "yes", "fuel:octane_95": "yes", "name": "Z", "opening_hours": "24/7", "phone": "+64 3 379 6421", "website": "http://z.co.nz/about-z/find-us/canterbury-and-christchurch/z-brougham-st/", "wheelchair": "yes"}}, {"type": "way", "id": 386888308, "nodes": [3902429113, 3902429114, 3902429115, 3902429116, 3902429117, 3902429118, 3902429119, 3902429120, 3902429121, 3902429122, 3902429113], "tags": {"addr:city": "Christchurch", "addr:country": "NZ", "addr:housenumber": "11", "addr:postcode": "8023", "addr:street": "Opawa Road", "addr:suburb": "Waltham", "amenity": "fuel", "brand": "Challenge", "brand:wikidata": "Q5068888", "brand:wikipedia": "en:Challenge (gasoline)", "building": "yes", "name": "Challenge Opawa", "opening_hours": "24/7", "phone": "+64 3 379 5549", "ref:linz:address_id": "237665", "website": "http://www.challenge.net.nz/en/Where-to-find-Us/Canterbury/ohallenge-opawa/"}}, {"type": "way", "id": 444212453, "nodes": [4416998124, 4416998127, 4416998139, 4416998133, 4416998124], "tags": {"amenity": "fuel", "brand": "BP", "brand:wikidata": "Q152057", "brand:wikipedia": "en:BP", "building": "yes", "name": "BP"}}, {"type": "way", "id": 446427832, "nodes": [4437029027, 4437029031, 4437029068, 4437029066, 4437029027], "tags": {"amenity": "fuel", "branch": "QE II", "brand": "BP", "brand:wikidata": "Q152057", "building": "roof", "fuel:diesel": "yes", "fuel:octane_91": "yes", "fuel:octane_95": "yes", "name": "BP", "opening_hours": "24/7"}}, {"type": "way", "id": 450515980, "nodes": [4474433339, 7252153969, 1172251631, 4474433342, 4474433341, 4474433340, 4474433339], "tags": {"addr:city": "Christchurch", "addr:country": "NZ", "addr:housenumber": "281", "addr:postcode": "8011", "addr:street": "Barbadoes Street", "addr:suburb": "Christchurch Central", "amenity": "fuel", "brand": "Mckeown", "building": "roof", "fuel:diesel": "yes", "fuel:octane_91": "yes", "fuel:octane_95": "yes", "layer": "1", "name": "Mckeown", "self_service": "yes"}}, {"type": "way", "id": 461745965, "nodes": [4572092715, 4572092713, 1283645353, 4572092714, 4572092710, 4572092709, 4572092715], "tags": {"amenity": "fuel", "brand": "Mobil", "brand:wikidata": "Q109676002", "brand:wikipedia": "ja:\u30e2\u30fc\u30d3\u30eb (\u30d6\u30e9\u30f3\u30c9)", "building": "roof", "compressed_air": "yes", "layer": "1", "name": "Mobil"}}, {"type": "way", "id": 542223110, "nodes": [5242398919, 5242398920, 5242399021, 5242399022, 7298689885, 5242399023, 7298686684, 7298689886, 5242399024, 5242399025, 7298689887, 5242399026, 5242398919], "tags": {"amenity": "fuel", "brand": "BP", "brand:wikidata": "Q152057", "brand:wikipedia": "en:BP", "fuel:diesel": "yes", "fuel:octane_91": "yes", "fuel:octane_98": "yes", "name": "BP", "operator": "BP"}}, {"type": "way", "id": 547325915, "nodes": [8839961294, 5288396723, 8871638716, 8839961293, 5288396722, 8839961294], "tags": {"addr:city": "Christchurch", "addr:country": "NZ", "addr:housenumber": "40", "addr:postcode": "8011", "addr:street": "Moorhouse Avenue", "amenity": "fuel", "branch": "Moorhouse", "brand": "Z", "brand:wikidata": "Q8063337", "brand:wikipedia": "en:Z Energy", "fuel:diesel": "yes", "fuel:octane_91": "yes", "fuel:octane_95": "yes", "name": "Z", "opening_hours": "24/7", "toilets": "yes", "website": "https://z.co.nz/about-z/find-us/canterbury-and-christchurch/z-moorhouse/"}}, {"type": "way", "id": 550731658, "nodes": [6265421881, 4407858641, 4407858647, 5319160414, 6265421879, 6265421887, 6265421881], "tags": {"addr:city": "Christchurch", "addr:housenumber": "432", "addr:postcode": "8051", "addr:street": "Marshland Road", "amenity": "fuel", "atm": "yes", "branch": "Marshland", "brand": "BP", "brand:wikidata": "Q152057", "brand:wikipedia": "en:BP", "cafe": "yes", "car_wash": "yes", "check_date": "2022-08-21", "compressed_air": "yes", "fuel:diesel": "yes", "fuel:octane_91": "yes", "fuel:octane_98": "yes", "name": "BP", "opening_hours": "24/7", "operator": "BP", "payment:american_express": "yes", "payment:mastercard": "yes", "payment:visa": "yes", "payment:visa_debit": "yes", "phone": "+64 3 385 4237", "service": "parking_aisle", "website": "https://www.bp.com/en_nz/new-zealand.html", "wheelchair": "yes"}}, {"type": "way", "id": 631443341, "nodes": [5963278855, 7199453352, 7199453353, 5963278856, 5963278857, 5963278858, 5963278855], "tags": {"addr:city": "Christchurch", "addr:country": "NZ", "addr:housenumber": "268-270", "addr:postcode": "8013", "addr:street": "Bealey Avenue", "amenity": "fuel", "brand": "Mobil", "brand:wikidata": "Q109676002", "brand:wikipedia": "ja:\u30e2\u30fc\u30d3\u30eb (\u30d6\u30e9\u30f3\u30c9)", "contact:phone": "+64 3 366 2465", "fuel:diesel": "yes", "fuel:octane_91": "yes", "fuel:octane_95": "yes", "name": "Mobil", "website": "https://www.mobil.co.nz"}}, {"type": "way", "id": 644071130, "nodes": [6059190736, 6059190737, 9231583062, 9231583061, 9231583060, 6059190738, 6059190739, 6059190736], "tags": {"amenity": "fuel", "branch": "Port HIlls Road", "brand": "npd", "brand:wikidata": "Q110922616", "fuel:HGV_diesel": "yes", "fuel:adblue": "yes", "fuel:diesel": "yes", "fuel:octane_100": "yes", "fuel:octane_91": "yes", "fuel:octane_95": "yes", "name": "npd", "opening_hours": "24/7", "payment:credit_cards": "yes", "payment:debit_cards": "yes", "self_service": "yes"}}, {"type": "way", "id": 652140196, "nodes": [6114347915, 6114347916, 6114347917, 6114347918, 6114347915], "tags": {"addr:city": "Christchurch", "addr:country": "NZ", "addr:housenumber": "33", "addr:postcode": "8042", "addr:street": "Lodestar Avenue", "addr:suburb": "Wigram", "amenity": "fuel", "brand": "npd", "brand:wikidata": "Q110922616", "building": "roof", "fuel:HGV_diesel": "yes", "fuel:adblue": "yes", "fuel:diesel": "yes", "fuel:octane_100": "yes", "fuel:octane_91": "yes", "fuel:octane_95": "yes", "name": "npd", "opening_hours": "24/7", "operator": "NPD", "ref:linz:address_id": "1938399", "self_service": "yes"}}, {"type": "way", "id": 724459437, "nodes": [6794162214, 6794162215, 6794162216, 6794162217, 6794162214], "tags": {"amenity": "fuel", "brand": "BP", "brand:wikidata": "Q152057", "name": "BP", "operator": "BP"}}, {"type": "way", "id": 733807565, "nodes": [6872669498, 7387754207, 6872669499, 6872669501, 6872669502, 282421229, 1172139044, 7387754209, 6872669505, 6872669506, 6872669507, 6872669498], "tags": {"amenity": "fuel", "brand": "Mobil", "brand:wikidata": "Q109676002", "brand:wikipedia": "ja:\u30e2\u30fc\u30d3\u30eb (\u30d6\u30e9\u30f3\u30c9)", "name": "Mobil"}}, {"type": "way", "id": 738803278, "nodes": [6917905789, 6917905790, 3118342746, 3118342744, 6917905789], "tags": {"amenity": "fuel", "brand": "npd", "brand:wikidata": "Q110922616", "fuel:diesel": "yes", "fuel:octane_100": "yes", "fuel:octane_91": "yes", "fuel:octane_95": "yes", "name": "npd"}}, {"type": "way", "id": 760408431, "nodes": [7103304056, 7103304073, 7103304074, 7103304075, 7103304076, 7103304077, 7103304078, 7103304081, 7103304079, 7103304080, 7103304053, 7103304055, 7103304056], "tags": {"addr:city": "Christchurch", "addr:housenumber": "7", "addr:postcode": "8061", "addr:street": "Marshland Road", "amenity": "fuel", "branch": "Shirley", "brand": "Z", "brand:wikidata": "Q8063337", "brand:wikipedia": "en:Z Energy", "fuel:diesel": "yes", "fuel:octane_91": "yes", "fuel:octane_95": "yes", "name": "Z", "self_service": "yes"}}, {"type": "way", "id": 790237001, "nodes": [7368267944, 9368717468, 9368717467, 7387715265, 1172651572, 7387715266, 7387715275, 7387715270, 7387715267, 7368267944], "tags": {"amenity": "fuel", "brand": "Waitomo", "brand:wikidata": "Q112569504", "name": "Waitomo", "name:mi": "Waitomo"}}, {"type": "way", "id": 810646207, "nodes": [990859063, 7579381176, 7579381177, 7579381178, 7579381179, 7579381180, 7579381181, 7579381182, 7579381183, 7579381184, 990859063], "tags": {"amenity": "fuel", "brand": "Mobil", "brand:wikidata": "Q109676002", "brand:wikipedia": "ja:\u30e2\u30fc\u30d3\u30eb (\u30d6\u30e9\u30f3\u30c9)", "building": "yes", "compressed_air": "yes", "name": "Mobil Creyke Road", "operator": "Mobil"}}, {"type": "way", "id": 813300416, "nodes": [6183115417, 6183115418, 7596997672, 7596997671, 6183115441, 9999005048, 6183115416, 6183115417], "tags": {"amenity": "fuel", "branch": "Harewood", "brand": "Allied Fuel", "fuel:diesel": "yes", "fuel:octane_91": "yes", "fuel:octane_95": "yes", "opening_hours": "24/7", "website": "https://alliedpetroleum.co.nz"}}, {"type": "way", "id": 825133290, "nodes": [5899286596, 5899286597, 5899286598, 5899286599, 5899286614, 5899286613, 5899286612, 5899286611, 5899286610, 5899286609, 5899286600, 5899286601, 5899286605, 5899286607, 5899286595, 5899286606, 5899286604, 5899286602, 5899286603, 5899286596], "tags": {"addr:city": "Christchurch", "addr:country": "NZ", "addr:housenumber": "115", "addr:street": "Milton Street", "amenity": "fuel", "branch": "Milton Street", "brand": "Challenge", "brand:wikidata": "Q5068888", "brand:wikipedia": "en:Challenge (company)", "fuel:diesel": "yes", "fuel:lpg": "yes", "fuel:octane_91": "yes", "fuel:octane_95": "yes", "name": "Challenge", "opening_hours": "Mo-Fr 06:00-22:00; Sa 06:30-21:00; Su 07:00-21:00", "phone": "+64 3 332 6056", "website": "https://www.challenge.net.nz"}}, {"type": "way", "id": 825137031, "nodes": [7989042423, 7989042425, 7989042424, 7989042426, 7989042423], "tags": {"addr:city": "Christchurch", "addr:country": "NZ", "addr:housenumber": "253", "addr:postcode": "8024", "addr:street": "Barrington Street", "amenity": "fuel", "branch": "Barrington", "brand": "Z", "brand:wikidata": "Q8063337", "brand:wikipedia": "en:Z Energy", "compressed_air": "yes", "fuel:diesel": "yes", "fuel:octane_91": "yes", "fuel:octane_95": "yes", "name": "Z", "opening_hours": "Mo-Su 06:00-00:00", "phone": "+64 3 332 4670", "smoking": "no", "toilets": "yes", "website": "https://z.co.nz", "wheelchair": "yes"}}, {"type": "way", "id": 829010038, "nodes": [7738509296, 7738509297, 7738509298, 7738509299, 7738509300, 7738509301, 7738509302, 7738509303, 7738509296], "tags": {"amenity": "fuel", "brand": "BP", "brand:wikidata": "Q152057", "brand:wikipedia": "en:BP", "building": "yes", "name": "BP"}}, {"type": "way", "id": 838854083, "nodes": [6863005246, 4210093500, 4210093532, 9482856642, 4210093535, 7828086296, 6863005246], "tags": {"addr:city": "Christchurch", "addr:country": "NZ", "addr:housenumber": "68", "addr:postcode": "8042", "addr:street": "Curletts Road", "addr:suburb": "Sockburn", "amenity": "fuel", "branch": "Curletts Road", "brand": "Z", "brand:wikidata": "Q8063337", "brand:wikipedia": "en:Z Energy", "building": "yes", "fuel:diesel": "yes", "fuel:octane_91": "yes", "fuel:octane_95": "yes", "name": "Z Curletts Road", "opening_hours": "24/7", "operator": "Z", "phone": "+64 3 348 5155", "ref:linz:address_id": "177098", "self_service": "yes"}}, {"type": "way", "id": 891829383, "nodes": [8288963782, 8288963785, 8288963786, 8288963787, 8288963788, 8288963789, 8288963790, 8288963791, 8288963782], "tags": {"amenity": "fuel", "brand": "Z", "brand:wikidata": "Q8063337", "building": "roof", "fuel:diesel": "yes", "fuel:octane_91": "yes", "fuel:octane_95": "yes", "name": "Z", "opening_hours": "24/7"}}, {"type": "way", "id": 915581369, "nodes": [289305351, 8504781945, 8504781946, 8504781947, 8504781948, 8504781949, 8504781950, 289305351], "tags": {"amenity": "fuel", "brand": "Challenge", "brand:wikidata": "Q5068888", "brand:wikipedia": "en:Challenge (gasoline)", "name": "Challenge Halswell Service Station"}}, {"type": "way", "id": 925072330, "nodes": [8585377220, 8585377221, 8585377222, 8585377223, 8585377220], "tags": {"addr:city": "Christchurch", "addr:country": "NZ", "addr:housenumber": "399", "addr:postcode": "8011", "addr:street": "Lincoln Road", "amenity": "fuel", "brand": "Gull", "brand:wikidata": "Q5617739", "brand:wikipedia": "en:Gull Petroleum", "fuel:diesel": "yes", "fuel:octane_91": "yes", "fuel:octane_95": "yes", "name": "Gull", "opening_hours": "24/7", "self_service": "yes"}}, {"type": "way", "id": 935915479, "nodes": [4437029584, 4437029582, 4437029562, 4437029573, 4437029584], "tags": {"addr:city": "Christchurch", "addr:country": "NZ", "addr:housenumber": "40", "addr:street": "Hawke Street", "addr:suburb": "New Brighton", "amenity": "fuel", "brand": "Z", "brand:wikidata": "Q8063337", "brand:wikipedia": "en:Z Energy", "name": "Z New Brighton", "ref:linz:address_id": "280728"}}, {"type": "way", "id": 958801250, "nodes": [8871711846, 7202499991, 9713285287, 8840163854, 8871711848, 8871711846], "tags": {"amenity": "fuel", "branch": "Moorhouse Avenue", "brand": "BP", "brand:wikidata": "Q152057", "brand:wikipedia": "en:BP", "fuel:diesel": "yes", "fuel:octane_91": "yes", "fuel:octane_95": "yes", "fuel:octane_98": "yes", "name": "BP", "opening_hours": "24/7", "phone": "+64 3 741 6265"}}, {"type": "way", "id": 1013664994, "nodes": [9352124904, 9352124905, 9352124906, 9352124907, 9352124904], "tags": {"amenity": "fuel", "brand": "npd", "brand:wikidata": "Q110922616", "building": "roof", "fuel:diesel": "yes", "fuel:octane_100": "yes", "fuel:octane_91": "yes", "fuel:octane_95": "yes", "name": "npd"}}, {"type": "way", "id": 1016404471, "nodes": [9374661025, 9374661026, 9374661027, 9374661030, 9374661025], "tags": {"amenity": "fuel", "brand": "Gull", "brand:wikidata": "Q111949119", "brand:wikipedia": "en:Gull Petroleum", "compressed_air": "no", "name": "Gull Awatea", "opening_hours": "24/7", "operator": "Gull", "self_service": "yes"}}, {"type": "way", "id": 1025728483, "nodes": [9457153670, 9457153669, 9457153668, 9457153667, 9457153670], "tags": {"amenity": "fuel", "brand": "npd", "brand:wikidata": "Q110922616", "building": "roof", "fuel:HGV_diesel": "yes", "fuel:adblue": "yes", "fuel:diesel": "yes", "fuel:octane_100": "yes", "fuel:octane_91": "yes", "fuel:octane_95": "yes", "name": "npd", "opening_hours": "24/7", "self_service": "yes"}}, {"type": "way", "id": 1082035724, "nodes": [9916629639, 9916629640, 9916629641, 9916629642, 9916629639], "tags": {"amenity": "fuel", "name": "Tasman Fuels"}}, {"type": "way", "id": 1089989329, "nodes": [9984542944, 9984542945, 9984542946, 9984542947, 9984542944], "tags": {"amenity": "fuel", "brand": "npd", "brand:wikidata": "Q110922616", "building": "roof", "fuel:diesel": "yes", "fuel:octane_100": "yes", "fuel:octane_91": "yes", "fuel:octane_95": "yes", "layer": "1", "name": "npd", "self_service": "yes"}}, {"type": "way", "id": 1098220338, "nodes": [4435513330, 10055621692, 3401480826, 10055621693, 10055621694, 10055621695, 10055621696, 10055621698, 10055621697, 4435513329, 4435513330], "tags": {"addr:city": "Christchurch", "addr:housenumber": "484", "addr:postcode": "8051", "addr:street": "Johns Road", "amenity": "fuel", "branch": "Harewood", "brand": "npd", "brand:wikidata": "Q110922616", "fuel:HGV_diesel": "yes", "fuel:adblue": "yes", "fuel:diesel": "yes", "fuel:octane_100": "yes", "fuel:octane_91": "yes", "fuel:octane_95": "yes", "name": "npd", "opening_hours": "24/7", "self_service": "yes"}}, {"type": "way", "id": 1117479128, "nodes": [10220469397, 9387624596, 9387624597, 10220469398, 10220469399, 10220469397], "tags": {"addr:city": "Christchurch", "addr:country": "NZ", "addr:housenumber": "694", "addr:postcode": "8042", "addr:street": "Main South Road", "amenity": "fuel", "branch": "Islington", "brand": "npd", "brand:wikidata": "Q110922616", "fuel:diesel": "yes", "fuel:octane_100": "yes", "fuel:octane_91": "yes", "fuel:octane_95": "yes", "name": "NPD", "opening_hours": "24/7", "self_service": "yes"}}, {"type": "way", "id": 1128140065, "nodes": [10314207202, 10314207203, 10314207204, 8585797835, 10314207202], "tags": {"addr:city": "Christchurch", "addr:housenumber": "399", "addr:postcode": "8011", "addr:street": "Lincoln Road", "amenity": "fuel", "brand": "Gull", "brand:wikidata": "Q5617739", "building": "no", "fuel:diesel": "yes", "fuel:octane_91": "yes", "fuel:octane_95": "yes", "name": "Gull", "self_service": "yes"}}, {"type": "way", "id": 1166009835, "nodes": [10844982710, 10844982711, 10844982712, 10844982718, 10844982713, 10844982714, 10844982715, 10844982716, 10844982717, 10844982710], "tags": {"amenity": "fuel", "brand": "RD Petroleum", "brand:wikidata": "Q115565889", "name": "RD Petroleum", "operator": "BP", "operator:wikidata": "Q152057"}}, {"type": "way", "id": 1168152934, "nodes": [10863798266, 10863798267, 10863798268, 10863798269, 10863798266], "tags": {"amenity": "fuel", "brand": "Z", "brand:wikidata": "Q8063337", "name": "Z Hornby Truck Stop", "self_service": "yes"}}, {"type": "way", "id": 1168152935, "nodes": [10863798270, 10863798271, 10863798272, 10863798273, 10863798270], "tags": {"amenity": "fuel", "brand": "Z", "brand:wikidata": "Q8063337", "name": "Z Hornby Truck Stop", "self_service": "yes", "start_date": "2023-05-26"}}, {"type": "way", "id": 1171530334, "nodes": [10886085995, 10886085996, 10886085997, 10886085998, 10886085995], "tags": {"amenity": "fuel", "brand": "npd", "brand:wikidata": "Q110922616", "building": "roof", "fuel:diesel": "yes", "fuel:octane_100": "yes", "fuel:octane_91": "yes", "fuel:octane_95": "yes", "name": "npd", "opening_hours": "24/7"}}, {"type": "way", "id": 1172671959, "nodes": [10895638403, 10895638404, 10895645205, 10895645206, 10895638403], "tags": {"amenity": "fuel", "brand": "npd", "brand:wikidata": "Q110922616", "building": "roof", "compressed_air": "no", "fuel:diesel": "yes", "fuel:octane_100": "yes", "fuel:octane_91": "yes", "fuel:octane_95": "yes", "name": "npd", "self_service": "yes"}}, {"type": "way", "id": 1178488632, "nodes": [10947839231, 10947839232, 10947839233, 10947839234, 10947839235, 10947839231], "tags": {"addr:city": "Christchurch", "addr:housenumber": "600", "addr:street": "Halswell Junction Road", "amenity": "fuel", "brand": "npd", "brand:wikidata": "Q110922616", "fuel:adblue": "yes", "fuel:diesel": "yes", "fuel:octane_91": "yes", "name": "NPD Hornby", "self_service": "yes"}}, {"type": "relation", "id": 11791169, "members": [{"type": "way", "ref": 305820364, "role": "outer"}], "tags": {"addr:city": "Christchurch", "addr:country": "NZ", "addr:street": "Cranford Street", "amenity": "fuel", "brand": "BP", "brand:wikidata": "Q152057", "brand:wikipedia": "en:BP", "fuel:diesel": "yes", "fuel:octane_91": "yes", "fuel:octane_98": "yes", "name": "BP Connect Edgeware", "type": "multipolygon"}}]}